{
  "norad_id": 48990,
  "name": "ONEWEB-0272",
  "history": [
    {
      "epoch": "2026-03-28T20:44:29.291424Z",
      "apogee_km": 1199.1314653975915,
      "perigee_km": 1196.3730841126526,
      "latitude_deg": 4.807623127832643e-05,
      "longitude_deg": 107.349196341019,
      "height_km": 1201.0897533578877,
      "semi_major_axis_km": 7575.889274755122,
      "eccentricity": 0.00018205,
      "inclination_deg": 87.903,
      "raan_deg": 244.7498,
      "arg_perigee_deg": 108.7515,
      "mean_anomaly_deg": 251.3814,
      "mean_motion_rev_day": 13.16595402
    },
    {
      "epoch": "2026-03-29T04:02:13.849440Z",
      "apogee_km": 1199.1424371882713,
      "perigee_km": 1196.363600729318,
      "latitude_deg": -6.584272975262094e-06,
      "longitude_deg": -2.446688203747054,
      "height_km": 1201.092238923099,
      "semi_major_axis_km": 7575.890018958794,
      "eccentricity": 0.0001834,
      "inclination_deg": 87.9031,
      "raan_deg": 244.6892,
      "arg_perigee_deg": 108.6848,
      "mean_anomaly_deg": 251.4482,
      "mean_motion_rev_day": 13.16595208
    },
    {
      "epoch": "2026-03-30T03:44:53.431872Z",
      "apogee_km": 1199.145744811205,
      "perigee_km": 1196.3532730440156,
      "latitude_deg": -1.2158427047056584e-05,
      "longitude_deg": 0.7177094283940555,
      "height_km": 1201.0893783247582,
      "semi_major_axis_km": 7575.8865089276105,
      "eccentricity": 0.0001843,
      "inclination_deg": 87.9032,
      "raan_deg": 244.4923,
      "arg_perigee_deg": 108.6189,
      "mean_anomaly_deg": 251.5142,
      "mean_motion_rev_day": 13.16596123
    },
    {
      "epoch": "2026-03-30T11:02:37.970880Z",
      "apogee_km": 1199.146415419089,
      "perigee_km": 1196.3550038336007,
      "latitude_deg": -1.946037672662182e-05,
      "longitude_deg": -109.07809365544789,
      "height_km": 1201.087461997156,
      "semi_major_axis_km": 7575.887709626345,
      "eccentricity": 0.00018423,
      "inclination_deg": 87.9032,
      "raan_deg": 244.4317,
      "arg_perigee_deg": 108.4913,
      "mean_anomaly_deg": 251.6418,
      "mean_motion_rev_day": 13.1659581
    },
    {
      "epoch": "2026-03-30T20:09:48.615264Z",
      "apogee_km": 1199.1619440341074,
      "perigee_km": 1196.3391683306745,
      "latitude_deg": 4.505792310295171e-05,
      "longitude_deg": 113.67732790741846,
      "height_km": 1201.0901071457843,
      "semi_major_axis_km": 7575.887556182391,
      "eccentricity": 0.0001863,
      "inclination_deg": 87.9034,
      "raan_deg": 244.356,
      "arg_perigee_deg": 108.4001,
      "mean_anomaly_deg": 251.7333,
      "mean_motion_rev_day": 13.1659585
    },
    {
      "epoch": "2026-03-31T16:13:35.953248Z",
      "apogee_km": 1199.1605275238562,
      "perigee_km": 1196.3316927705273,
      "latitude_deg": -1.1568007919594317e-05,
      "longitude_deg": 171.7395211096419,
      "height_km": 1201.0840654940064,
      "semi_major_axis_km": 7575.8831101471915,
      "eccentricity": 0.0001867,
      "inclination_deg": 87.9035,
      "raan_deg": 244.1894,
      "arg_perigee_deg": 108.2911,
      "mean_anomaly_deg": 251.8423,
      "mean_motion_rev_day": 13.16597009
    },
    {
      "epoch": "2026-04-01T15:56:15.661824Z",
      "apogee_km": 1199.16702599147,
      "perigee_km": 1196.3290994469762,
      "latitude_deg": -6.132265459188281e-05,
      "longitude_deg": 174.90349076442197,
      "height_km": 1201.0906140382829,
      "semi_major_axis_km": 7575.885062719223,
      "eccentricity": 0.0001873,
      "inclination_deg": 87.9039,
      "raan_deg": 243.9926,
      "arg_perigee_deg": 108.4258,
      "mean_anomaly_deg": 251.7076,
      "mean_motion_rev_day": 13.165965
    },
    {
      "epoch": "2026-04-02T15:38:55.378176Z",
      "apogee_km": 1199.1556200314426,
      "perigee_km": 1196.3410271160292,
      "latitude_deg": 2.9139678550559023e-05,
      "longitude_deg": 178.06753263220835,
      "height_km": 1201.0916695734886,
      "semi_major_axis_km": 7575.885323573736,
      "eccentricity": 0.00018576,
      "inclination_deg": 87.9042,
      "raan_deg": 243.7959,
      "arg_perigee_deg": 108.6175,
      "mean_anomaly_deg": 251.5158,
      "mean_motion_rev_day": 13.16596432
    },
    {
      "epoch": "2026-04-02T21:07:13.746144Z",
      "apogee_km": 1199.1615080831843,
      "perigee_km": 1196.334793815663,
      "latitude_deg": 3.426529982410917e-05,
      "longitude_deg": 95.72078221504299,
      "height_km": 1201.0918414013486,
      "semi_major_axis_km": 7575.885150949423,
      "eccentricity": 0.00018656,
      "inclination_deg": 87.9043,
      "raan_deg": 243.7504,
      "arg_perigee_deg": 108.5501,
      "mean_anomaly_deg": 251.5833,
      "mean_motion_rev_day": 13.16596477
    },
    {
      "epoch": "2026-04-03T20:49:53.445216Z",
      "apogee_km": 1199.1957627426918,
      "perigee_km": 1196.3017743791015,
      "latitude_deg": 1.1705606969704589e-05,
      "longitude_deg": 98.88479131370228,
      "height_km": 1201.095122796993,
      "semi_major_axis_km": 7575.885768560896,
      "eccentricity": 0.000191,
      "inclination_deg": 87.9041,
      "raan_deg": 243.5536,
      "arg_perigee_deg": 108.218,
      "mean_anomaly_deg": 251.9159,
      "mean_motion_rev_day": 13.16596316
    },
    {
      "epoch": "2026-04-04T04:07:37.925472Z",
      "apogee_km": 1199.1940409106064,
      "perigee_km": 1196.299598738403,
      "latitude_deg": 6.760731610693759e-05,
      "longitude_deg": -10.91076452302344,
      "height_km": 1201.0848437588995,
      "semi_major_axis_km": 7575.883819824504,
      "eccentricity": 0.00019103,
      "inclination_deg": 87.904,
      "raan_deg": 243.493,
      "arg_perigee_deg": 107.8689,
      "mean_anomaly_deg": 252.2651,
      "mean_motion_rev_day": 13.16596824
    },
    {
      "epoch": "2026-04-05T11:08:02.096160Z",
      "apogee_km": 1199.214852922075,
      "perigee_km": 1196.2819246526606,
      "latitude_deg": -2.8331275307038684e-06,
      "longitude_deg": -117.54218040484535,
      "height_km": 1201.0726441628794,
      "semi_major_axis_km": 7575.885388787367,
      "eccentricity": 0.00019357,
      "inclination_deg": 87.9041,
      "raan_deg": 243.2357,
      "arg_perigee_deg": 107.0651,
      "mean_anomaly_deg": 253.0692,
      "mean_motion_rev_day": 13.16596415
    },
    {
      "epoch": "2026-04-05T20:15:12.750912Z",
      "apogee_km": 1199.2176560746157,
      "perigee_km": 1196.2797276033216,
      "latitude_deg": -3.0853440155242173e-06,
      "longitude_deg": 105.21309436076598,
      "height_km": 1201.0813848469752,
      "semi_major_axis_km": 7575.885691838968,
      "eccentricity": 0.0001939,
      "inclination_deg": 87.9042,
      "raan_deg": 243.1599,
      "arg_perigee_deg": 107.3796,
      "mean_anomaly_deg": 252.7547,
      "mean_motion_rev_day": 13.16596336
    },
    {
      "epoch": "2026-04-05T22:04:38.873568Z",
      "apogee_km": 1199.217833622186,
      "perigee_km": 1196.2806625238081,
      "latitude_deg": 8.818398764794516e-05,
      "longitude_deg": 77.76414729343898,
      "height_km": 1201.0786843589285,
      "semi_major_axis_km": 7575.886248072997,
      "eccentricity": 0.00019385,
      "inclination_deg": 87.9042,
      "raan_deg": 243.1447,
      "arg_perigee_deg": 107.2518,
      "mean_anomaly_deg": 252.8826,
      "mean_motion_rev_day": 13.16596191
    },
    {
      "epoch": "2026-04-07T10:33:21.779424Z",
      "apogee_km": 1199.2745040852606,
      "perigee_km": 1196.238692002653,
      "latitude_deg": 4.566435211527524e-05,
      "longitude_deg": -111.21555482036639,
      "height_km": 1201.094180120033,
      "semi_major_axis_km": 7575.893598043956,
      "eccentricity": 0.00020036,
      "inclination_deg": 87.9047,
      "raan_deg": 242.8419,
      "arg_perigee_deg": 107.0,
      "mean_anomaly_deg": 253.1351,
      "mean_motion_rev_day": 13.16594275
    },
    {
      "epoch": "2026-04-07T19:40:32.529216Z",
      "apogee_km": 1199.2905484552093,
      "perigee_km": 1196.2283711061646,
      "latitude_deg": 2.305831213194198e-05,
      "longitude_deg": 111.53932161366927,
      "height_km": 1201.0939010661439,
      "semi_major_axis_km": 7575.896459780686,
      "eccentricity": 0.0002021,
      "inclination_deg": 87.9049,
      "raan_deg": 242.7661,
      "arg_perigee_deg": 106.7277,
      "mean_anomaly_deg": 253.4076,
      "mean_motion_rev_day": 13.16593529
    },
    {
      "epoch": "2026-04-08T15:44:20.127264Z",
      "apogee_km": 1199.2778698026514,
      "perigee_km": 1196.2481158775145,
      "latitude_deg": 8.465130131376662e-05,
      "longitude_deg": 169.60082886585982,
      "height_km": 1201.0985717219057,
      "semi_major_axis_km": 7575.899992840083,
      "eccentricity": 0.00019996,
      "inclination_deg": 87.9051,
      "raan_deg": 242.5999,
      "arg_perigee_deg": 106.9558,
      "mean_anomaly_deg": 253.1793,
      "mean_motion_rev_day": 13.16592608
    },
    {
      "epoch": "2026-04-09T19:05:52.323072Z",
      "apogee_km": 1199.313292282388,
      "perigee_km": 1196.2117190247727,
      "latitude_deg": -8.083529767272804e-05,
      "longitude_deg": 117.86617839091078,
      "height_km": 1201.09861954589,
      "semi_major_axis_km": 7575.89950565358,
      "eccentricity": 0.0002047,
      "inclination_deg": 87.9056,
      "raan_deg": 242.373,
      "arg_perigee_deg": 106.5746,
      "mean_anomaly_deg": 253.5609,
      "mean_motion_rev_day": 13.16592735
    },
    {
      "epoch": "2026-04-10T11:30:47.381184Z",
      "apogee_km": 1199.336320301315,
      "perigee_km": 1196.1680834370936,
      "latitude_deg": 1.3407173441923417e-05,
      "longitude_deg": -129.17358088492568,
      "height_km": 1201.092665813089,
      "semi_major_axis_km": 7575.889201869204,
      "eccentricity": 0.0002091,
      "inclination_deg": 87.9056,
      "raan_deg": 242.2368,
      "arg_perigee_deg": 106.3834,
      "mean_anomaly_deg": 253.7527,
      "mean_motion_rev_day": 13.16595421
    }
  ]
}